KUIPER-00167            
1 65780U 25217U   25342.00004630 -.01136997  00000+0 -10003+0 0  9992
2 65780  51.8878  92.0866 0011623 325.0798 209.3997 14.99247198  5416
KUIPER-00168            
1 65781U 25217V   25341.67670107  .00060575  00000+0  15520-2 0  9990
2 65781  51.8722  88.3226 0000991 305.4717  54.6178 15.38799531 11272
KUIPER-00169            
1 65782U 25217W   25341.32683258  .00050029  00000+0  14176-2 0  9993
2 65782  51.8729  90.4737 0004775 321.0944  38.9698 15.35758622 11210
KUIPER-00170            
1 65783U 25217X   25342.00004630 -.00010527  00000+0 -43149-3 0  9995
2 65783  51.8779  88.6765 0008816 344.7821 150.5406 15.22696651  5256
KUIPER-00171            
1 65784U 25217Y   25342.00004630  .00010856  00000+0  97995-4 0  9998
2 65784  51.8575  80.2586 0010017 350.5993 254.0300 15.68705748  5825
KUIPER-00172            
1 65785U 25217Z   25341.69051857  .00067694  00000+0  17377-2 0  9992
2 65785  51.8735  88.4105 0004456 321.5066  38.5603 15.38684509 11275
KUIPER-00173            
1 65786U 25217AA  25341.72028979  .00037422  00000+0  11358-2 0  9995
2 65786  51.8722  88.5767 0003371 292.6931  67.3697 15.33732030 11272
KUIPER-00174            
1 65787U 25217AB  25341.68624013  .00085624  00000+0  22254-2 0  9996
2 65787  51.8729  88.3807 0003097 285.7373  74.3273 15.38196978 11279
